0 DELTA 1 DEB
1 37663U 78026KA  13288.77165029  .00000500  00000-0  26838-3 0   959
2 37663 098.6275 270.5393 0042227 033.5326 327.3806 14.16819703547850
0 DELTA 1 DEB
1 37663U 78026KA  13296.18663576  .00000480  00000-0  25869-3 0   964
2 37663 098.6243 277.7218 0042086 011.9398 348.2793 14.16827215548903
